ONEWEB-0350             
1 49214U 21083AE  25357.45515875  .00000330  00000+0  86923-3 0  9992
2 49214  87.8981 355.1474 0001478  96.1815 263.9483 13.13471415207860
ONEWEB-0351             
1 49215U 21083AF  25357.95798378 -.00000123  00000+0 -33400-3 0  9993
2 49215  87.9212 309.3853 0001719  50.5927 309.5358 13.20769622213646
ONEWEB-0352             
1 49216U 21083AG  25357.89275256 -.00000287  00000+0 -82082-3 0  9993
2 49216  87.8972 355.0819 0001684  74.8171 285.3144 13.13469798208012
ONEWEB-0354             
1 49217U 21083AH  25357.90761344 -.00000092  00000+0 -25736-3 0  9991
2 49217  87.9221 309.3951 0001665  88.7091 271.4234 13.20770744213672
ONEWEB-0355             
1 49218U 21083AJ  25357.92167168 -.00000015  00000+0 -77208-4 0  9995
2 49218  87.8972 355.0894 0001538  85.4377 274.6928 13.13468867207893
ONEWEB-0357             
1 49219U 21083AK  25357.90445333  .00000186  00000+0  42601-3 0  9992
2 49219  87.9215 309.3911 0001647  76.1400 283.9916 13.20771429213674
ONEWEB-0332             
1 49279U 21090A   25357.91937700  .00000087  00000+0  19889-3 0  9993
2 49279  87.8993 324.6357 0001942  76.4449 283.6897 13.14503859204555
ONEWEB-0347             
1 49280U 21090B   25357.28893980  .00000135  00000+0  29917-3 0  9993
2 49280  87.9210 309.5234 0002119  77.4942 282.6429 13.20771129207829
